$$SOE
2460154.500000000, A.D. 2023-Jul-29 00:00:00.0000, 9.326308724994153E+07, 2.456722962869982E+08, 2.257658085656622E+07,
2460161.500000000, A.D. 2023-Aug-05 00:00:00.0000, 8.046646046200265E+07, 2.483666988872808E+08, 2.748194046303484E+07,
2460168.500000000, A.D. 2023-Aug-12 00:00:00.0000, 6.745411288627645E+07, 2.503948291699430E+08, 3.231353890483166E+07,
2460175.500000000, A.D. 2023-Aug-19 00:00:00.0000, 5.425845872362097E+07, 2.517420209170752E+08, 3.705722474828905E+07,
2460182.500000000, A.D. 2023-Aug-26 00:00:00.0000, 4.091340890230206E+07, 2.523954866487187E+08, 4.169875540488026E+07,
2460189.500000000, A.D. 2023-Sep-02 00:00:00.0000, 2.745427953044452E+07, 2.523444732560620E+08, 4.622386219367734E+07,
2460196.500000000, A.D. 2023-Sep-09 00:00:00.0000, 1.391768187289724E+07, 2.515804126731748E+08, 5.061832055555472E+07,
2460203.500000000, A.D. 2023-Sep-16 00:00:00.0000, 3.413937132745578E+05, 2.500970650551459E+08, 5.486802495842908E+07,
2460210.500000000, A.D. 2023-Sep-23 00:00:00.0000, -1.323578745951798E+07, 2.478906521477658E+08, 5.895906789818479E+07,
2460217.500000000, A.D. 2023-Sep-30 00:00:00.0000, -2.677420938512417E+07, 2.449599793721772E+08, 6.287782240455008E+07,
2460224.500000000, A.D. 2023-Oct-07 00:00:00.0000, -4.023354962395415E+07, 2.413065434041936E+08, 6.661102736533181E+07,
2460231.500000000, A.D. 2023-Oct-14 00:00:00.0000, -5.357301752637475E+07, 2.369346192788956E+08, 7.014587429871562E+07,
2460238.500000000, A.D. 2023-Oct-21 00:00:00.0000, -6.675156870859974E+07, 2.318513261312826E+08, 7.347009429944170E+07,
2460245.500000000, A.D. 2023-Oct-28 00:00:00.0000, -7.972813135920739E+07, 2.260666716023146E+08, 7.657204428399065E+07,
2460252.500000000, A.D. 2023-Nov-04 00:00:00.0000, -9.246184310088123E+07, 2.195935721845078E+08, 7.944079131424628E+07,
2460259.500000000, A.D. 2023-Nov-11 00:00:00.0000, -1.049122953403683E+08, 2.124478473329445E+08, 8.206619362120973E+07,
2460266.500000000, A.D. 2023-Nov-18 00:00:00.0000, -1.170397816737342E+08, 2.046481861676874E+08, 8.443897698305182E+07,
2460273.500000000, A.D. 2023-Nov-25 00:00:00.0000, -1.288055468055266E+08, 1.962160861943702E+08, 8.655080515053472E+07,
2460280.500000000, A.D. 2023-Dec-02 00:00:00.0000, -1.401720323289746E+08, 1.871757639856448E+08, 8.839434306623611E+07,
2460287.500000000, A.D. 2023-Dec-09 00:00:00.0000, -1.511031156238326E+08, 1.775540382963130E+08, 8.996331172079492E+07,
2460294.500000000, A.D. 2023-Dec-16 00:00:00.0000, -1.615643379822679E+08, 1.673801867550074E+08, 9.125253364258191E+07,
2460301.500000000, A.D. 2023-Dec-23 00:00:00.0000, -1.715231181594145E+08, 1.566857785446280E+08, 9.225796827095018E+07,
2460308.500000000, A.D. 2023-Dec-30 00:00:00.0000, -1.809489494693385E+08, 1.455044863983702E+08, 9.297673686038888E+07,
2460315.500000000, A.D. 2024-Jan-06 00:00:00.0000, -1.898135793118746E+08, 1.338718783179639E+08, 9.340713654074034E+07,
2460322.500000000, A.D. 2024-Jan-13 00:00:00.0000, -1.980911654696763E+08, 1.218251903693469E+08, 9.354864295625977E+07,
2460329.500000000, A.D. 2024-Jan-20 00:00:00.0000, -2.057584059578902E+08, 1.094030870722031E+08, 9.340190169283874E+07,
2460336.500000000, A.D. 2024-Jan-27 00:00:00.0000, -2.127946430457965E+08, 9.664541367912066E+07, 9.296870905452226E+07,
2460343.500000000, A.D. 2024-Feb-03 00:00:00.0000, -2.191819410321185E+08, 8.359294316331977E+07, 9.225198269712767E+07,
2460350.500000000, A.D. 2024-Feb-10 00:00:00.0000, -2.249051372088660E+08, 7.028712137407750E+07, 9.125572279603158E+07,
2460357.500000000, A.D. 2024-Feb-17 00:00:00.0000, -2.299518661486198E+08, 5.676981399938113E+07, 8.998496462541877E+07,
2460364.500000000, A.D. 2024-Feb-24 00:00:00.0000, -2.343125580798458E+08, 4.308305877795064E+07, 8.844572357058544E+07,
2460371.500000000, A.D. 2024-Mar-02 00:00:00.0000, -2.379804125947104E+08, 2.926882607107233E+07, 8.664493368883353E+07,
2460378.500000000, A.D. 2024-Mar-09 00:00:00.0000, -2.409513492327163E+08, 1.536879052397117E+07, 8.459038098111568E+07,
2460385.500000000, A.D. 2024-Mar-16 00:00:00.0000, -2.432239365608704E+08, 1.424116407315522E+06, 8.229063255601731E+07,
2460392.500000000, A.D. 2024-Mar-23 00:00:00.0000, -2.447993021233085E+08, -1.252474029078716E+07, 7.975496297434269E+07,
2460399.500000000, A.D. 2024-Mar-30 00:00:00.0000, -2.456810279455239E+08, -2.643821153812645E+07, 7.699327912359378E+07,
2460406.500000000, A.D. 2024-Apr-06 00:00:00.0000, -2.458750338853904E+08, -4.027778100300343E+07, 7.401604440901670E+07,
2460413.500000000, A.D. 2024-Apr-13 00:00:00.0000, -2.453894478536000E+08, -5.400613039487933E+07, 7.083420300959866E+07,
2460420.500000000, A.D. 2024-Apr-20 00:00:00.0000, -2.442344663718905E+08, -6.758726547907561E+07, 6.745910540825453E+07,
2460427.500000000, A.D. 2024-Apr-27 00:00:00.0000, -2.424222094012921E+08, -8.098662245335850E+07, 6.390243608522634E+07,
2460434.500000000, A.D. 2024-May-04 00:00:00.0000, -2.399665716482723E+08, -9.417115583770990E+07, 6.017614400292400E+07,
2460441.500000000, A.D. 2024-May-11 00:00:00.0000, -2.368830722428123E+08, -1.071094086803418E+08, 5.629237643059595E+07,
2460448.500000000, A.D. 2024-May-18 00:00:00.0000, -2.331887046298210E+08, -1.197715659694415E+08, 5.226341655394744E+07,
2460455.500000000, A.D. 2024-May-25 00:00:00.0000, -2.289017883458353E+08, -1.321294923426342E+08, 4.810162519625106E+07,
2460462.500000000, A.D. 2024-Jun-01 00:00:00.0000, -2.240418240871192E+08, -1.441567553665336E+08, 4.381938686176918E+07,
2460469.500000000, A.D. 2024-Jun-08 00:00:00.0000, -2.186293530589140E+08, -1.558286357101645E+08, 3.942906020213522E+07,
2460476.500000000, A.D. 2024-Jun-15 00:00:00.0000, -2.126858212185750E+08, -1.671221250135401E+08, 3.494293295468177E+07,
2460483.500000000, A.D. 2024-Jun-22 00:00:00.0000, -2.062334502159669E+08, -1.780159116329971E+08, 3.037318150921403E+07,
2460490.500000000, A.D. 2024-Jun-29 00:00:00.0000, -1.992951177520886E+08, -1.884903574250546E+08, 2.573183505598070E+07,
2460497.500000000, A.D. 2024-Jul-06 00:00:00.0000, -1.918942451352714E+08, -1.985274693454959E+08, 2.103074372797113E+07,
2460504.500000000, A.D. 2024-Jul-13 00:00:00.0000, -1.840546903544924E+08, -2.081108642853503E+08, 1.628155060717709E+07,
2460511.500000000, A.D. 2024-Jul-20 00:00:00.0000, -1.758006487809234E+08, -2.172257271608000E+08, 1.149566765585580E+07,
2460518.500000000, A.D. 2024-Jul-27 00:00:00.0000, -1.671565621524288E+08, -2.258587642937835E+08, 6.684255315688580E+06,
2460525.500000000, A.D. 2024-Aug-03 00:00:00.0000, -1.581470354584017E+08, -2.339981534472965E+08, 1.858205465007380E+06,
2460532.500000000, A.D. 2024-Aug-10 00:00:00.0000, -1.487967613650112E+08, -2.416334914249744E+08, -2.971872543128327E+06,
2460539.500000000, A.D. 2024-Aug-17 00:00:00.0000, -1.391304518779227E+08, -2.487557400301424E+08, -7.795663028266340E+06,
2460546.500000000, A.D. 2024-Aug-24 00:00:00.0000, -1.291727769083502E+08, -2.553571711293066E+08, -1.260315258213122E+07,
2460553.500000000, A.D. 2024-Aug-31 00:00:00.0000, -1.189483092784940E+08, -2.614313115145137E+08, -1.738463639403327E+07,
2460560.500000000, A.D. 2024-Sep-07 00:00:00.0000, -1.084814754245797E+08, -2.669728879889420E+08, -2.213072257574224E+07,
2460567.500000000, A.D. 2024-Sep-14 00:00:00.0000, -9.779651132196598E+07, -2.719777721507827E+08, -2.683233465236287E+07,
2460574.500000000, A.D. 2024-Sep-21 00:00:00.0000, -8.691742526430473E+07, -2.764429248513584E+08, -3.148071222544605E+07,
2460581.500000000, A.D. 2024-Sep-28 00:00:00.0000, -7.586796757985562E+07, -2.803663438646545E+08, -3.606741023499677E+07,
2460588.500000000, A.D. 2024-Oct-05 00:00:00.0000, -6.467160320223711E+07, -2.837470150161649E+08, -4.058429734472306E+07,
2460595.500000000, A.D. 2024-Oct-12 00:00:00.0000, -5.335148704131863E+07, -2.865848640024576E+08, -4.502355334668636E+07,
2460602.500000000, A.D. 2024-Oct-19 00:00:00.0000, -4.193044350559046E+07, -2.888807093576815E+08, -4.937766561193022E+07,
2460609.500000000, A.D. 2024-Oct-26 00:00:00.0000, -3.043094984109512E+07, -2.906362175211279E+08, -5.363942480818489E+07,
2460616.500000000, A.D. 2024-Nov-02 00:00:00.0000, -1.887512269281855E+07, -2.918538602588217E+08, -5.780192006599264E+07,
2460623.500000000, A.D. 2024-Nov-09 00:00:00.0000, -7.284707471465863E+06, -2.925368744743177E+08, -6.185853372815172E+07,
2460630.500000000, A.D. 2024-Nov-16 00:00:00.0000, 4.318929811695993E+06, -2.926892244317496E+08, -6.580293579676759E+07,
2460637.500000000, A.D. 2024-Nov-23 00:00:00.0000, 1.591480858580403E+07, -2.923155664462693E+08, -6.962907818682498E+07,
2460644.500000000, A.D. 2024-Nov-30 00:00:00.0000, 2.748233812181905E+07, -2.914212160740612E+08, -7.333118889930594E+07,
2460651.500000000, A.D. 2024-Dec-07 00:00:00.0000, 3.900132097019295E+07, -2.900121173545018E+08, -7.690376619823743E+07,
2460658.500000000, A.D. 2024-Dec-14 00:00:00.0000, 5.045195498428771E+07, -2.880948128395704E+08, -8.034157269930804E+07,
2460665.500000000, A.D. 2024-Dec-21 00:00:00.0000, 6.181483183191748E+07, -2.856764155974932E+08, -8.363962932050820E+07,
2460672.500000000, A.D. 2024-Dec-28 00:00:00.0000, 7.307093417403585E+07, -2.827645860952734E+08, -8.679320957246089E+07,
2460679.500000000, A.D. 2025-Jan-04 00:00:00.0000, 8.420163430004254E+07, -2.793675115197333E+08, -8.979783428216568E+07,
2460686.500000000, A.D. 2025-Jan-11 00:00:00.0000, 9.518869257451545E+07, -2.754938858102726E+08, -9.264926649210779E+07,
2460693.500000000, A.D. 2025-Jan-18 00:00:00.0000, 1.060142549403875E+08, -2.711528912495664E+08, -9.534350656443757E+07,
2460700.500000000, A.D. 2025-Jan-25 00:00:00.0000, 1.166608498722985E+08, -2.663541820106845E+08, -9.787678758521838E+07,
2460707.500000000, A.D. 2025-Feb-01 00:00:00.0000, 1.271113851087508E+08, -2.611078696132255E+08, -1.002455711184751E+08,
2460714.500000000, A.D. 2025-Feb-08 00:00:00.0000, 1.373491443496379E+08, -2.554245101897252E+08, -1.024465433394699E+08,
2460721.500000000, A.D. 2025-Feb-15 00:00:00.0000, 1.473577840671365E+08, -2.493150935004621E+08, -1.044766115726084E+08,
$$EOE